{
  "type": "FeatureCollection",
  "features": [
    {
      "type": "Feature",
      "properties": {
        "norad_id": 37846,
        "name": "GSAT0101 (GALILEO-PFM)",
        "group": "gnss",
        "lat": -51.563339234062234,
        "lon": -67.70815573812595,
        "alt_km": 23220.41109335853,
        "timestamp": "2025-12-02T19:35:50.798468+00:00",
        "meta_object_name": "GSAT0101 (GALILEO-PFM)",
        "meta_object_id": "2011-060A",
        "meta_epoch": "2025-11-24T03:07:29.832960",
        "meta_mean_motion": 1.70475782,
        "meta_eccentricity": 0.00025776,
        "meta_inclination": 57.0574,
        "meta_ra_of_asc_node": 347.3256,
        "meta_arg_of_pericenter": 308.2281,
        "meta_mean_anomaly": 51.7929,
        "meta_ephemeris_type": 0,
        "meta_classification_type": "U",
        "meta_norad_cat_id": 37846,
        "meta_element_set_no": 999,
        "meta_rev_at_epoch": 8762,
        "meta_bstar": 0,
        "meta_mean_motion_dot": -6.3e-07,
        "meta_mean_motion_ddot": 0,
        "tle_line1": "1 37846U 11060A   25328.13020640 -.00000063  00000+0  00000+0 0  9990",
        "tle_line2": "2 37846  57.0574 347.3256 0002577 308.2281  51.7929  1.70475782 87620"
      },
      "geometry": {
        "type": "Point",
        "coordinates": [
          -67.70815573812595,
          -51.563339234062234
        ]
      }
    },
    {
      "type": "Feature",
      "properties": {
        "norad_id": 37847,
        "name": "GSAT0102 (GALILEO-FM2)",
        "group": "gnss",
        "lat": -19.566851039561904,
        "lon": -26.229820325296547,
        "alt_km": 23212.600841584423,
        "timestamp": "2025-12-02T19:35:50.798480+00:00",
        "meta_object_name": "GSAT0102 (GALILEO-FM2)",
        "meta_object_id": "2011-060B",
        "meta_epoch": "2025-12-02T06:27:38.703744",
        "meta_mean_motion": 1.70475743,
        "meta_eccentricity": 0.0004752,
        "meta_inclination": 57.0559,
        "meta_ra_of_asc_node": 347.1049,
        "meta_arg_of_pericenter": 306.1199,
        "meta_mean_anomaly": 54.4344,
        "meta_ephemeris_type": 0,
        "meta_classification_type": "U",
        "meta_norad_cat_id": 37847,
        "meta_element_set_no": 999,
        "meta_rev_at_epoch": 8777,
        "meta_bstar": 0,
        "meta_mean_motion_dot": -6.2e-07,
        "meta_mean_motion_ddot": 0,
        "tle_line1": "1 37847U 11060B   25336.26919796 -.00000062  00000+0  00000+0 0  9992",
        "tle_line2": "2 37847  57.0559 347.1049 0004752 306.1199  54.4344  1.70475743 87778"
      },
      "geometry": {
        "type": "Point",
        "coordinates": [
          -26.229820325296547,
          -19.566851039561904
        ]
      }
    },
    {
      "type": "Feature",
      "properties": {
        "norad_id": 37867,
        "name": "COSMOS 2476 (744)",
        "group": "gnss",
        "lat": -4.262684213966302,
        "lon": 77.53012165979324,
        "alt_km": 19163.351468410925,
        "timestamp": "2025-12-02T19:35:50.798500+00:00",
        "meta_object_name": "COSMOS 2476 (744)",
        "meta_object_id": "2011-064A",
        "meta_epoch": "2025-12-01T09:39:55.197216",
        "meta_mean_motion": 2.13101277,
        "meta_eccentricity": 0.002392,
        "meta_inclination": 65.1564,
        "meta_ra_of_asc_node": 79.5552,
        "meta_arg_of_pericenter": 233.3514,
        "meta_mean_anomaly": 117.0738,
        "meta_ephemeris_type": 0,
        "meta_classification_type": "U",
        "meta_norad_cat_id": 37867,
        "meta_element_set_no": 999,
        "meta_rev_at_epoch": 10954,
        "meta_bstar": 0,
        "meta_mean_motion_dot": -1.3e-07,
        "meta_mean_motion_ddot": 0,
        "tle_line1": "1 37867U 11064A   25335.40272219 -.00000013  00000+0  00000+0 0  9991",
        "tle_line2": "2 37867  65.1564  79.5552 0023920 233.3514 117.0738  2.13101277109540"
      },
      "geometry": {
        "type": "Point",
        "coordinates": [
          77.53012165979324,
          -4.262684213966302
        ]
      }
    },
    {
      "type": "Feature",
      "properties": {
        "norad_id": 37868,
        "name": "COSMOS 2477 (745)",
        "group": "gnss",
        "lat": 3.802195314200759,
        "lon": -102.177874498505,
        "alt_km": 19101.425224812298,
        "timestamp": "2025-12-02T19:35:50.798513+00:00",
        "meta_object_name": "COSMOS 2477 (745)",
        "meta_object_id": "2011-064B",
        "meta_epoch": "2025-12-01T05:34:43.743072",
        "meta_mean_motion": 2.1310269,
        "meta_eccentricity": 0.00209845,
        "meta_inclination": 65.1625,
        "meta_ra_of_asc_node": 79.6383,
        "meta_arg_of_pericenter": 233.8301,
        "meta_mean_anomaly": 166.8442,
        "meta_ephemeris_type": 0,
        "meta_classification_type": "U",
        "meta_norad_cat_id": 37868,
        "meta_element_set_no": 999,
        "meta_rev_at_epoch": 10954,
        "meta_bstar": 0,
        "meta_mean_motion_dot": -1.2e-07,
        "meta_mean_motion_ddot": 0,
        "tle_line1": "1 37868U 11064B   25335.23245073 -.00000012  00000+0  00000+0 0  9990",
        "tle_line2": "2 37868  65.1625  79.6383 0020984 233.8301 166.8442  2.13102690109542"
      },
      "geometry": {
        "type": "Point",
        "coordinates": [
          -102.177874498505,
          3.802195314200759
        ]
      }
    },
    {
      "type": "Feature",
      "properties": {
        "norad_id": 37869,
        "name": "COSMOS 2475 (743)",
        "group": "gnss",
        "lat": 42.64027597774381,
        "lon": -125.59267982874495,
        "alt_km": 19154.37357412738,
        "timestamp": "2025-12-02T19:35:50.798540+00:00",
        "meta_object_name": "COSMOS 2475 (743)",
        "meta_object_id": "2011-064C",
        "meta_epoch": "2025-12-01T05:41:50.555616",
        "meta_mean_motion": 2.13101369,
        "meta_eccentricity": 0.00260135,
        "meta_inclination": 65.1695,
        "meta_ra_of_asc_node": 79.658,
        "meta_arg_of_pericenter": 248.1873,
        "meta_mean_anomaly": 112.2788,
        "meta_ephemeris_type": 0,
        "meta_classification_type": "U",
        "meta_norad_cat_id": 37869,
        "meta_element_set_no": 999,
        "meta_rev_at_epoch": 10955,
        "meta_bstar": 0,
        "meta_mean_motion_dot": -1.2e-07,
        "meta_mean_motion_ddot": 0,
        "tle_line1": "1 37869U 11064C   25335.23739069 -.00000012  00000+0  00000+0 0  9994",
        "tle_line2": "2 37869  65.1695  79.6580 0026013 248.1873 112.2788  2.13101369109552"
      },
      "geometry": {
        "type": "Point",
        "coordinates": [
          -125.59267982874495,
          42.64027597774381
        ]
      }
    },
    {
      "type": "Feature",
      "properties": {
        "norad_id": 37948,
        "name": "BEIDOU-2 IGSO-5 (C10)",
        "group": "gnss",
        "lat": -2.6166313558240417,
        "lon": 96.28954012639493,
        "alt_km": 35415.58725377476,
        "timestamp": "2025-12-02T19:35:50.798554+00:00",
        "meta_object_name": "BEIDOU-2 IGSO-5 (C10)",
        "meta_object_id": "2011-073A",
        "meta_epoch": "2025-12-01T19:23:12.254208",
        "meta_mean_motion": 1.00292861,
        "meta_eccentricity": 0.01108827,
        "meta_inclination": 48.0424,
        "meta_ra_of_asc_node": 273.9939,
        "meta_arg_of_pericenter": 222.2372,
        "meta_mean_anomaly": 317.7789,
        "meta_ephemeris_type": 0,
        "meta_classification_type": "U",
        "meta_norad_cat_id": 37948,
        "meta_element_set_no": 999,
        "meta_rev_at_epoch": 5115,
        "meta_bstar": 0,
        "meta_mean_motion_dot": -1.75e-06,
        "meta_mean_motion_ddot": 0,
        "tle_line1": "1 37948U 11073A   25335.80778072 -.00000175  00000+0  00000+0 0  9992",
        "tle_line2": "2 37948  48.0424 273.9939 0110882 222.2372 317.7789  1.00292861 51150"
      },
      "geometry": {
        "type": "Point",
        "coordinates": [
          96.28954012639493,
          -2.6166313558240417
        ]
      }
    },
    {
      "type": "Feature",
      "properties": {
        "norad_id": 37951,
        "name": "LUCH 5A (SDCM/PRN 140)",
        "group": "gnss",
        "lat": 8.197773436566647,
        "lon": 172.83650118631653,
        "alt_km": 35779.102955175214,
        "timestamp": "2025-12-02T19:35:50.798570+00:00",
        "meta_object_name": "LUCH 5A (SDCM/PRN 140)",
        "meta_object_id": "2011-074B",
        "meta_epoch": "2025-12-02T13:17:44.981376",
        "meta_mean_motion": 1.00273272,
        "meta_eccentricity": 0.0005877,
        "meta_inclination": 8.2521,
        "meta_ra_of_asc_node": 76.7354,
        "meta_arg_of_pericenter": 173.3193,
        "meta_mean_anomaly": 188.0137,
        "meta_ephemeris_type": 0,
        "meta_classification_type": "U",
        "meta_norad_cat_id": 37951,
        "meta_element_set_no": 999,
        "meta_rev_at_epoch": 5108,
        "meta_bstar": 0,
        "meta_mean_motion_dot": -3.2e-07,
        "meta_mean_motion_ddot": 0,
        "tle_line1": "1 37951U 11074B   25336.55399284 -.00000032  00000+0  00000+0 0  9996",
        "tle_line2": "2 37951   8.2521  76.7354 0005877 173.3193 188.0137  1.00273272 51087"
      },
      "geometry": {
        "type": "Point",
        "coordinates": [
          172.83650118631653,
          8.197773436566647
        ]
      }
    }
  ]
}